ZHONGXING-2C            
1 41021U 15063A   26115.94414631 -.00000337  00000+0  00000+0 0  9992
2 41021   0.1394  92.6280 0006392 111.6877  92.9750  1.00272771 38454
GSAT-15                 
1 41028U 15065A   26115.96518654 -.00000271  00000+0  00000+0 0  9990
2 41028   0.0707 257.4227 0003681 143.4092 254.1198  1.00272175 38276
BADR-7 (ARABSAT-6B)     
1 41029U 15065B   26115.97095573  .00000131  00000+0  00000+0 0  9996
2 41029   0.0335 237.6070 0002412 357.7665 354.1380  1.00270361 38243
LAOSAT 1                
1 41034U 15067A   26115.94908633  .00000000  00000+0  00000+0 0  9996
2 41034   0.0161 237.4073 0002312 121.2429 325.4683  1.00271270 38335
TELSTAR 12V             
1 41036U 15068A   26115.92065954 -.00000132  00000+0  00000+0 0  9994
2 41036   0.0070 211.9089 0002452 177.3915 141.0687  1.00271627 38104
ELEKTRO-L 2             
1 41105U 15074A   26115.70682659 -.00000127  00000+0  00000+0 0  9995
2 41105   6.5646  71.1540 0002298 254.2871 128.2279  1.00270542 37987
COSMOS 2513             
1 41121U 15075A   26115.15516058 -.00000152  00000+0  00000+0 0  9990
2 41121   0.0606  89.4059 0003114 311.9726 307.9048  1.00270389 38019
EXPRESS-AMU1            
1 41191U 15082A   26115.94141926  .00000000  00000+0  00000+0 0  9991
2 41191   0.0193 243.0889 0002992 138.3226 207.5602  1.00268331 37749
GAOFEN-4                
1 41194U 15083A   26115.58798596 -.00000348  00000+0  00000+0 0  9992
2 41194   0.3731  82.6392 0003203 131.5552 316.7450  1.00267707 38002
BELINTERSAT-1           
1 41238U 16001A   26115.97172584  .00000094  00000+0  00000+0 0  9995
2 41238   0.0126 235.9599 0002219 131.4400 247.9268  1.00269448 37718
IRNSS-1E                
1 41241U 16003A   26111.89127155 -.00000302  00000+0  00000+0 0  9995
2 41241  33.1155  60.5610 0017245 183.4571  38.5260  1.00277854 37512
EUTELSAT 9B             
1 41310U 16005A   26115.92542622  .00000048  00000+0  00000+0 0  9998
2 41310   0.0733  71.9885 0003445 285.9156 198.1752  1.00272977 37596
SES-9                   
1 41380U 16013A   26115.94052814 -.00000358  00000+0  00000+0 0  9990
2 41380   0.0164 285.3139 0001996 134.1316 241.3811  1.00270312 36919
EUTELSAT 65 WEST A      
1 41382U 16014A   26115.91069284 -.00000290  00000+0  00000+0 0  9994
2 41382   0.0584  28.7157 0002225 355.6626  92.1917  1.00273042 37009
BEIDOU-2 IGSO-6         
1 41434U 16021A   26112.85559397 -.00000169  00000+0  00000+0 0  9994
2 41434  60.1522  38.5901 0055866 232.0601 343.5038  1.00270364 36923
IRNSS-1G                
1 41469U 16027A   26115.87793270 -.00000342  00000+0  00000+0 0  9996
2 41469   5.0672  98.7029 0005880 345.3501 215.4963  1.00276207 36658
JCSAT-2B                
1 41471U 16028A   26115.88278605  .00000000  00000+0  00000+0 0  9991
2 41471   0.0171 234.3707 0001317 173.0526 278.2828  1.00274882 36604
